EARTHCARE               
1 59908U 24101A   24269.30037774  .00021526  00000+0  29693-3 0  9990
2 59908  96.9901  34.8398 0004429  99.1517 261.0241 15.57204056 18553
